{"type": "FeatureCollection", "features": [ {"type": "Feature", "properties": {"norad_id": 66584, "name": "STARLINK-35939", "group": "last-30-days", "lat": 33.44858910999272, "lon": 170.70423716016083, "alt_km": 432.69163402226604, "timestamp": "2025-12-27T06:41:29.617264+00:00", "meta": {"OBJECT_NAME": "STARLINK-35939", "OBJECT_ID": "2025-268AD", "EPOCH": "2025-12-26T22:00:01.999584", "MEAN_MOTION": 15.44649867, "ECCENTRICITY": 0.00010638, "INCLINATION": 43.001, "RA_OF_ASC_NODE": 37.9453, "ARG_OF_PERICENTER": 266.7176, "MEAN_ANOMALY": 4.282, "EPHEMERIS_TYPE": 0, "CLASSIFICATION_TYPE": "U", "NORAD_CAT_ID": 66584, "ELEMENT_SET_NO": 999, "REV_AT_EPOCH": 607, "BSTAR": -0.048542729, "MEAN_MOTION_DOT": -0.02057648, "MEAN_MOTION_DDOT": 0}, "tle": {"line1": "1 66584U 25268AD  25360.91668981 -.02057648  00000+0 -48543-1 0  9994", "line2": "2 66584  43.0010  37.9453 0001063 266.7176   4.2820 15.44649867  6078"}}, "geometry": {"type": "Point", "coordinates": [170.70423716016083, 33.44858910999272]}}, {"type": "Feature", "properties": {"norad_id": 66585, "name": "STARLINK-35963", "group": "last-30-days", "lat": -42.743509679297674, "lon": -46.266730427555785, "alt_km": 478.64544629543525, "timestamp": "2025-12-27T06:41:29.617275+00:00", "meta": {"OBJECT_NAME": "STARLINK-35963", "OBJECT_ID": "2025-268AE", "EPOCH": "2025-12-26T22:00:01.999584", "MEAN_MOTION": 15.31356837, "ECCENTRICITY": 0.00015297, "INCLINATION": 43.0007, "RA_OF_ASC_NODE": 38.4168, "ARG_OF_PERICENTER": 272.881, "MEAN_ANOMALY": 164.8526, "EPHEMERIS_TYPE": 0, "CLASSIFICATION_TYPE": "U", "NORAD_CAT_ID": 66585, "ELEMENT_SET_NO": 999, "REV_AT_EPOCH": 607, "BSTAR": -0.071571043, "MEAN_MOTION_DOT": -0.02001928, "MEAN_MOTION_DDOT": 0}, "tle": {"line1": "1 66585U 25268AE  25360.91668981 -.02001928  00000+0 -71571-1 0  9992", "line2": "2 66585  43.0007  38.4168 0001529 272.8810 164.8526 15.31356837  6078"}}, "geometry": {"type": "Point", "coordinates": [-46.266730427555785, -42.743509679297674]}}, {"type": "Feature", "properties": {"norad_id": 66586, "name": "TJS-21", "group": "last-30-days", "lat": 52.31788716335833, "lon": -158.47893134420082, "alt_km": 29686.51376760144, "timestamp": "2025-12-27T06:41:29.617288+00:00", "meta": {"OBJECT_NAME": "TJS-21", "OBJECT_ID": "2025-269A", "EPOCH": "2025-12-18T16:58:10.473888", "MEAN_MOTION": 2.00580748, "ECCENTRICITY": 0.6806869, "INCLINATION": 63.2733, "RA_OF_ASC_NODE": 161.7218, "ARG_OF_PERICENTER": 269.7428, "MEAN_ANOMALY": 18.6663, "EPHEMERIS_TYPE": 0, "CLASSIFICATION_TYPE": "U", "NORAD_CAT_ID": 66586, "ELEMENT_SET_NO": 999, "REV_AT_EPOCH": 55, "BSTAR": -0.059507049, "MEAN_MOTION_DOT": 1.084e-05, "MEAN_MOTION_DDOT": 0}, "tle": {"line1": "1 66586U 25269A   25352.70706567  .00001084  00000+0 -59507-1 0  9990", "line2": "2 66586  63.2733 161.7218 6806869 269.7428  18.6663  2.00580748   558"}}, "geometry": {"type": "Point", "coordinates": [-158.47893134420082, 52.31788716335833]}}, {"type": "Feature", "properties": {"norad_id": 66588, "name": "STARLINK-36076", "group": "last-30-days", "lat": 40.0684470786416, "lon": -135.50613175875793, "alt_km": 438.1986542397626, "timestamp": "2025-12-27T06:41:29.617305+00:00", "meta": {"OBJECT_NAME": "STARLINK-36076", "OBJECT_ID": "2025-270A", "EPOCH": "2025-12-26T17:46:23.070720", "MEAN_MOTION": 15.40706304, "ECCENTRICITY": 0.00010051, "INCLINATION": 42.9985, "RA_OF_ASC_NODE": 112.1115, "ARG_OF_PERICENTER": 274.9025, "MEAN_ANOMALY": 85.1717, "EPHEMERIS_TYPE": 0, "CLASSIFICATION_TYPE": "U", "NORAD_CAT_ID": 66588, "ELEMENT_SET_NO": 999, "REV_AT_EPOCH": 650, "BSTAR": 0.00091499933, "MEAN_MOTION_DOT": 0.00038117, "MEAN_MOTION_DDOT": 0}, "tle": {"line1": "1 66588U 25270A   25360.74054480  .00038117  00000+0  91500-3 0  9994", "line2": "2 66588  42.9985 112.1115 0001005 274.9025  85.1717 15.40706304  6509"}}, "geometry": {"type": "Point", "coordinates": [-135.50613175875793, 40.0684470786416]}}, {"type": "Feature", "properties": {"norad_id": 66589, "name": "STARLINK-35447", "group": "last-30-days", "lat": -19.369019971053902, "lon": -49.07516946456513, "alt_km": 445.2084889506832, "timestamp": "2025-12-27T06:41:29.617315+00:00", "meta": {"OBJECT_NAME": "STARLINK-35447", "OBJECT_ID": "2025-270B", "EPOCH": "2025-12-25T14:53:33.760896", "MEAN_MOTION": 15.4069884, "ECCENTRICITY": 0.0001173, "INCLINATION": 43.0008, "RA_OF_ASC_NODE": 118.3206, "ARG_OF_PERICENTER": 257.0782, "MEAN_ANOMALY": 102.9943, "EPHEMERIS_TYPE": 0, "CLASSIFICATION_TYPE": "U", "NORAD_CAT_ID": 66589, "ELEMENT_SET_NO": 999, "REV_AT_EPOCH": 644, "BSTAR": 0.00080611, "MEAN_MOTION_DOT": 0.00033516, "MEAN_MOTION_DDOT": 0}, "tle": {"line1": "1 66589U 25270B   25359.62052964  .00033516  00000+0  80611-3 0  9994", "line2": "2 66589  43.0008 118.3206 0001173 257.0782 102.9943 15.40698840  6442"}}, "geometry": {"type": "Point", "coordinates": [-49.07516946456513, -19.369019971053902]}}, {"type": "Feature", "properties": {"norad_id": 66590, "name": "STARLINK-35429", "group": "last-30-days", "lat": -37.60731154978655, "lon": 52.80269393036185, "alt_km": 445.37948646069253, "timestamp": "2025-12-27T06:41:29.617325+00:00", "meta": {"OBJECT_NAME": "STARLINK-35429", "OBJECT_ID": "2025-270C", "EPOCH": "2025-12-25T17:37:41.590560", "MEAN_MOTION": 15.40721997, "ECCENTRICITY": 0.0001639, "INCLINATION": 43.002, "RA_OF_ASC_NODE": 117.4547, "ARG_OF_PERICENTER": 273.6487, "MEAN_ANOMALY": 86.4182, "EPHEMERIS_TYPE": 0, "CLASSIFICATION_TYPE": "U", "NORAD_CAT_ID": 66590, "ELEMENT_SET_NO": 999, "REV_AT_EPOCH": 646, "BSTAR": 0.001733211, "MEAN_MOTION_DOT": 0.00072845, "MEAN_MOTION_DDOT": 0}, "tle": {"line1": "1 66590U 25270C   25359.73450915  .00072845  00000+0  17332-2 0  9993", "line2": "2 66590  43.0020 117.4547 0001639 273.6487  86.4182 15.40721997  6462"}}, "geometry": {"type": "Point", "coordinates": [52.80269393036185, -37.60731154978655]}}, {"type": "Feature", "properties": {"norad_id": 66591, "name": "STARLINK-36058", "group": "last-30-days", "lat": 15.428248205472224, "lon": 125.5696429688978, "alt_km": 441.4401986075727, "timestamp": "2025-12-27T06:41:29.617336+00:00", "meta": {"OBJECT_NAME": "STARLINK-36058", "OBJECT_ID": "2025-270D", "EPOCH": "2025-12-26T15:02:03.164928", "MEAN_MOTION": 15.40738813, "ECCENTRICITY": 0.00026937, "INCLINATION": 43.0054, "RA_OF_ASC_NODE": 112.1064, "ARG_OF_PERICENTER": 284.3087, "MEAN_ANOMALY": 75.747, "EPHEMERIS_TYPE": 0, "CLASSIFICATION_TYPE": "U", "NORAD_CAT_ID": 66591, "ELEMENT_SET_NO": 999, "REV_AT_EPOCH": 649, "BSTAR": 0.0011610165, "MEAN_MOTION_DOT": 0.0004857, "MEAN_MOTION_DDOT": 0}, "tle": {"line1": "1 66591U 25270D   25360.62642552  .00048570  00000+0  11610-2 0  9995", "line2": "2 66591  43.0054 112.1064 0002693 284.3087  75.7470 15.40738813  6491"}}, "geometry": {"type": "Point", "coordinates": [125.5696429688978, 15.428248205472224]}}, {"type": "Feature", "properties": {"norad_id": 66592, "name": "STARLINK-36066", "group": "last-30-days", "lat": 13.919215544856975, "lon": -86.53803843239787, "alt_km": 441.86856257466843, "timestamp": "2025-12-27T06:41:29.617346+00:00", "meta": {"OBJECT_NAME": "STARLINK-36066", "OBJECT_ID": "2025-270E", "EPOCH": "2025-12-26T08:13:21.289728", "MEAN_MOTION": 15.40749213, "ECCENTRICITY": 0.0001723, "INCLINATION": 43.0012, "RA_OF_ASC_NODE": 114.282, "ARG_OF_PERICENTER": 268.5662, "MEAN_ANOMALY": 91.4997, "EPHEMERIS_TYPE": 0, "CLASSIFICATION_TYPE": "U", "NORAD_CAT_ID": 66592, "ELEMENT_SET_NO": 999, "REV_AT_EPOCH": 634, "BSTAR": 0.0013745, "MEAN_MOTION_DOT": 0.00057643, "MEAN_MOTION_DDOT": 0}, "tle": {"line1": "1 66592U 25270E   25360.34260752  .00057643  00000+0  13745-2 0  9995", "line2": "2 66592  43.0012 114.2820 0001723 268.5662  91.4997 15.40749213  6344"}}, "geometry": {"type": "Point", "coordinates": [-86.53803843239787, 13.919215544856975]}}, {"type": "Feature", "properties": {"norad_id": 66593, "name": "STARLINK-36031", "group": "last-30-days", "lat": -38.56910947084934, "lon": -12.488385774245115, "alt_km": 447.9794971134934, "timestamp": "2025-12-27T06:41:29.617359+00:00", "meta": {"OBJECT_NAME": "STARLINK-36031", "OBJECT_ID": "2025-270F", "EPOCH": "2025-12-26T17:10:54.853824", "MEAN_MOTION": 15.40744951, "ECCENTRICITY": 0.00017656, "INCLINATION": 43.0007, "RA_OF_ASC_NODE": 111.9193, "ARG_OF_PERICENTER": 34.9432, "MEAN_ANOMALY": 325.154, "EPHEMERIS_TYPE": 0, "CLASSIFICATION_TYPE": "U", "NORAD_CAT_ID": 66593, "ELEMENT_SET_NO": 999, "REV_AT_EPOCH": 650, "BSTAR": 0.0012375744, "MEAN_MOTION_DOT": 0.00051823, "MEAN_MOTION_DDOT": 0}, "tle": {"line1": "1 66593U 25270F   25360.71591266  .00051823  00000+0  12376-2 0  9997", "line2": "2 66593  43.0007 111.9193 0001765  34.9432 325.1540 15.40744951  6505"}}, "geometry": {"type": "Point", "coordinates": [-12.488385774245115, -38.56910947084934]}}, {"type": "Feature", "properties": {"norad_id": 66594, "name": "STARLINK-36032", "group": "last-30-days", "lat": -9.825997376918174, "lon": 97.72211047477626, "alt_km": 444.00393534106934, "timestamp": "2025-12-27T06:41:29.617369+00:00", "meta": {"OBJECT_NAME": "STARLINK-36032", "OBJECT_ID": "2025-270G", "EPOCH": "2025-12-26T15:11:43.630368", "MEAN_MOTION": 15.40675984, "ECCENTRICITY": 0.00024472, "INCLINATION": 42.9999, "RA_OF_ASC_NODE": 112.1553, "ARG_OF_PERICENTER": 282.7997, "MEAN_ANOMALY": 77.2586, "EPHEMERIS_TYPE": 0, "CLASSIFICATION_TYPE": "U", "NORAD_CAT_ID": 66594, "ELEMENT_SET_NO": 999, "REV_AT_EPOCH": 630, "BSTAR": 0.0012386841, "MEAN_MOTION_DOT": 0.00051752, "MEAN_MOTION_DDOT": 0}, "tle": {"line1": "1 66594U 25270G   25360.63314387  .00051752  00000+0  12387-2 0  9999", "line2": "2 66594  42.9999 112.1553 0002447 282.7997  77.2586 15.40675984  6306"}}, "geometry": {"type": "Point", "coordinates": [97.72211047477626, -9.825997376918174]}}]}